RISAT-2BR2              
1 46905U 20081A   26068.52426450  .00004901  00000+0  37609-3 0  9996
2 46905  36.8980  95.9121 0010905  52.9142 307.2595 15.01602463292489
STARLINK-34730          
1 64938U 25158G   26068.57412411  .00003921  00000+0  27579-3 0  9995
2 64938  97.6029 294.0445 0001899  87.0605 273.0839 15.05650418 35348
